COSMOS 2507 (RODNIK-S *)
1 40920U 15050A   26168.87618413  .00000073  00000+0  45851-3 0  9992
2 40920  82.4932  79.2417 0010207 355.4451   4.6534 12.42926620486949
COSMOS 2508 (RODNIK-S *)
1 40921U 15050B   26168.91170808  .00000003  00000+0 -48761-4 0  9997
2 40921  82.4884  77.7245 0015167  25.3750 334.8071 12.42913838486933
COSMOS 2509 (RODNIK-S *)
1 40922U 15050C   26168.93206472  .00000001  00000+0 -64574-4 0  9995
2 40922  82.4892  77.8143 0015710  41.4520 318.7748 12.42883294486977
LINGQIAO VIDEO A        
1 40959U 15057B   26168.97112706  .00000618  00000+0  93599-4 0  9994
2 40959  97.6615 163.7342 0015160 267.7039  92.2436 14.77394414575520
LINGQIAO VIDEO B        
1 40960U 15057C   26168.94774442  .00000488  00000+0  75200-4 0  9998
2 40960  97.6580 164.8752 0015313 267.7331  92.2127 14.77499685575562
JILIN-1                 
1 40961U 15057D   26168.96094775  .00000647  00000+0  95958-4 0  9994
2 40961  97.6507 168.2892 0015332 260.1921  99.7559 14.78161530575723
FOX-1A (AO-85)          
1 40967U 15058D   26168.62085905  .00001835  00000+0  17288-3 0  9998
2 40967  64.7761 277.6363 0130498  56.4134 304.9355 14.90971345113637
SINOD-D 1               
1 40968U 15058E   26168.47942457  .00002427  00000+0  20174-3 0  9992
2 40968  64.7753 257.9976 0119049  52.9638 308.2295 14.95907070116709
ELEKTRO-L 2             
1 41105U 15074A   26167.63786162 -.00000124  00000+0  00000+0 0  9995
2 41105   6.6931  70.5258 0000972 242.2635 167.2330  1.00270425 38506
DAMPE                   
1 41173U 15078A   26168.95282499  .00000768  00000+0  28375-4 0  9997
2 41173  97.4551 174.4232 0013796  74.6143 285.6621 15.30786000584662
ORBCOMM FM110           
1 41182U 15081D   26168.92574824  .00000540  00000+0  15044-3 0  9990
2 41182  47.0033 357.9511 0002494  80.4208 279.6960 14.58881675557736
ORBCOMM FM112           
1 41184U 15081F   26168.69060944  .00000436  00000+0  12845-3 0  9999
2 41184  46.9988 267.8667 0003758 219.7796 140.2814 14.58905026559021
ORBCOMM FM113           
1 41185U 15081G   26167.98238227  .00000280  00000+0  95480-4 0  9996
2 41185  47.0010 271.5920 0002254 223.6251 136.4456 14.58858314558906
ORBCOMM FM108           
1 41187U 15081J   26168.15023927  .00000279  00000+0  95355-4 0  9996
2 41187  47.0031 182.3720 0002952 221.4938 138.5724 14.58869994560079
ORBCOMM FM117           
1 41188U 15081K   26167.77331926  .00000187  00000+0  75792-4 0  9996
2 41188  46.9995 182.7879 0003453 223.2090 136.8525 14.58864783560062
ORBCOMM FM116           
1 41189U 15081L   26167.75377462  .00000488  00000+0  13931-3 0  9990
2 41189  47.0020 272.6710 0000581  62.4502 297.6443 14.58882755558877
HORYU-4                 
1 41340U 16012D   26166.43547623  .00392649  54783-4  97992-3 0  9990
2 41340  30.9849  91.8834 0005149 261.3375  98.6703 15.94546005570538
ZIYUAN 3-02 (ZY 3-02)   
1 41556U 16033A   26168.97890249  .00004118  00000+0  18592-3 0  9996
2 41556  97.3834 244.7392 0011151 286.5397  73.4614 15.21487715558102
CARTOSAT-2C             
1 41599U 16040A   26168.98265230  .00002841  00000+0  13814-3 0  9991
2 41599  97.4478 228.9501 0009984 127.9179 232.2960 15.19194542553831
LAPAN-A3                
1 41603U 16040E   26168.97438940  .00002843  00000+0  91109-4 0  9992
2 41603  97.1488 165.0941 0010810  23.2158 336.9571 15.33109041554937
GAOFEN-3                
1 41727U 16049A   26168.91651304 -.00000146  00000+0 -31094-4 0  9996
2 41727  98.4004 176.6913 0001408  99.3948 260.7401 14.42214995518753
CAS-2T & KS-1Q          
1 41847U 16066G   26168.79471087  .00001433  00000+0  20773-3 0  9991
2 41847  98.3822 244.5241 0342813 127.6417 235.6409 14.44696391504880
YUNHAI-1 01             
1 41857U 16068A   26168.93459258  .00000265  00000+0  11352-3 0  9991
2 41857  98.5823 179.9346 0006121  41.4447 318.7200 14.32706109501937
RESOURCESAT-2A          
1 41877U 16074A   26168.91538396 -.00000101  00000+0 -25860-4 0  9990
2 41877  98.7529 242.4137 0003352  82.3648 277.7909 14.21615568494407
