OBJECT_NAME,OBJECT_ID,EPOCH,MEAN_MOTION,ECCENTRICITY,INCLINATION,RA_OF_ASC_NODE,ARG_OF_PERICENTER,MEAN_ANOMALY,EPHEMERIS_TYPE,CLASSIFICATION_TYPE,NORAD_CAT_ID,ELEMENT_SET_NO,REV_AT_EPOCH,BSTAR,MEAN_MOTION_DOT,MEAN_MOTION_DDOT
COSMOS 2507 (RODNIK-S 13),2015-050A,2026-06-17T21:01:42.308832,12.42926620,.00102073,82.4932,79.2417,355.4451,4.6534,0,U,40920,999,48694,.4585082E-3,.73E-6,0
COSMOS 2508 (RODNIK-S 14),2015-050B,2026-06-17T21:52:51.578112,12.42913838,.0015167,82.4884,77.7245,25.3750,334.8071,0,U,40921,999,48693,-.48760583E-4,.3E-7,0
COSMOS 2509 (RODNIK-S 15),2015-050C,2026-06-17T22:22:10.391808,12.42883294,.00157104,82.4892,77.8143,41.4520,318.7748,0,U,40922,999,48697,-.64574133E-4,.1E-7,0
LINGQIAO VIDEO A,2015-057B,2026-06-17T23:18:25.377984,14.77394414,.00151609,97.6615,163.7342,267.7039,92.2436,0,U,40959,999,57552,.93598569E-4,.618E-5,0
LINGQIAO VIDEO B,2015-057C,2026-06-17T22:44:45.117888,14.77499685,.00153137,97.6580,164.8752,267.7331,92.2127,0,U,40960,999,57556,.75199761E-4,.488E-5,0
JILIN-1,2015-057D,2026-06-17T23:03:45.885600,14.78161530,.00153325,97.6507,168.2892,260.1921,99.7559,0,U,40961,999,57572,.95958419E-4,.647E-5,0
FOX-1A (AO-85),2015-058D,2026-06-17T14:54:02.221920,14.90971345,.01304986,64.7761,277.6363,56.4134,304.9355,0,U,40967,999,11363,.17288103E-3,.1835E-4,0
SINOD-D 1,2015-058E,2026-06-17T11:30:22.282848,14.95907070,.01190493,64.7753,257.9976,52.9638,308.2295,0,U,40968,999,11670,.201744E-3,.2427E-4,0
ELEKTRO-L 2,2015-074A,2026-06-16T15:18:31.243968,1.00270425,.0000972,6.6931,70.5258,242.2635,167.2330,0,U,41105,999,3850,0,-.124E-5,0
DAMPE,2015-078A,2026-06-17T22:52:04.079136,15.30786000,.00137967,97.4551,174.4232,74.6143,285.6621,0,U,41173,999,58466,.28374799E-4,.768E-5,0
ORBCOMM FM110,2015-081D,2026-06-17T22:13:04.647936,14.58881675,.00024948,47.0033,357.9511,80.4208,279.6960,0,U,41182,999,55773,.15044486E-3,.54E-5,0
ORBCOMM FM112,2015-081F,2026-06-17T16:34:28.655616,14.58905026,.00037588,46.9988,267.8667,219.7796,140.2814,0,U,41184,999,55902,.12845216E-3,.436E-5,0
ORBCOMM FM113,2015-081G,2026-06-16T23:34:37.828128,14.58858314,.0002254,47.0010,271.5920,223.6251,136.4456,0,U,41185,999,55890,.95480256E-4,.28E-5,0
ORBCOMM FM108,2015-081J,2026-06-17T03:36:20.672928,14.58869994,.0002952,47.0031,182.3720,221.4938,138.5724,0,U,41187,999,56007,.95355081E-4,.279E-5,0
ORBCOMM FM117,2015-081K,2026-06-16T18:33:34.784064,14.58864783,.00034533,46.9995,182.7879,223.2090,136.8525,0,U,41188,999,56006,.75792409E-4,.187E-5,0
ORBCOMM FM116,2015-081L,2026-06-16T18:05:26.127168,14.58882755,.00005817,47.0020,272.6710,62.4502,297.6443,0,U,41189,999,55887,.13930728E-3,.488E-5,0
HORYU-4,2016-012D,2026-06-15T10:27:05.146272,15.94546005,.00051492,30.9849,91.8834,261.3375,98.6703,0,U,41340,999,57053,.9799184E-3,.392649E-2,.54782598E-4
ZIYUAN 3-02 (ZY 3-02),2016-033A,2026-06-17T23:29:37.175136,15.21487715,.0011151,97.3834,244.7392,286.5397,73.4614,0,U,41556,999,55810,.18591896E-3,.4118E-4,0
CARTOSAT-2C,2016-040A,2026-06-17T23:35:01.158720,15.19194542,.00099842,97.4478,228.9501,127.9179,232.2960,0,U,41599,999,55383,.13814052E-3,.2841E-4,0
LAPAN-A3,2016-040E,2026-06-17T23:23:07.244160,15.33109041,.00108106,97.1488,165.0941,23.2158,336.9571,0,U,41603,999,55493,.91109027E-4,.2843E-4,0
GAOFEN-3,2016-049A,2026-06-17T21:59:46.726656,14.42214995,.00014085,98.4004,176.6913,99.3948,260.7401,0,U,41727,999,51875,-.31094229E-4,-.146E-5,0
CAS-2T & KS-1Q,2016-066G,2026-06-17T19:04:23.019168,14.44696391,.03428132,98.3822,244.5241,127.6417,235.6409,0,U,41847,999,50488,.2077305E-3,.1433E-4,0
YUNHAI-1 01,2016-068A,2026-06-17T22:25:48.798912,14.32706109,.00061219,98.5823,179.9346,41.4447,318.7200,0,U,41857,999,50193,.11352022E-3,.265E-5,0
RESOURCESAT-2A,2016-074A,2026-06-17T21:58:09.174144,14.21615568,.00033523,98.7529,242.4137,82.3648,277.7909,0,U,41877,999,49440,-.2586026E-4,-.101E-5,0
